{
  "norad_id": 59301,
  "name": "STARLINK-31502",
  "history": [
    {
      "epoch": "2026-03-28T08:40:55.369344Z",
      "apogee_km": 483.79607819123794,
      "perigee_km": 482.32160720464253,
      "latitude_deg": -4.194516172153661e-06,
      "longitude_deg": 161.9979952083539,
      "height_km": 483.0336699347097,
      "semi_major_axis_km": 6861.19584269794,
      "eccentricity": 0.00010745,
      "inclination_deg": 43.001,
      "raan_deg": 118.012,
      "arg_perigee_deg": 254.3923,
      "mean_anomaly_deg": 105.681,
      "mean_motion_rev_day": 15.27576745
    },
    {
      "epoch": "2026-03-29T03:30:47.388384Z",
      "apogee_km": 484.0865437059974,
      "perigee_km": 481.8237555150563,
      "latitude_deg": 4.985730365751943e-05,
      "longitude_deg": -125.67445979444945,
      "height_km": 483.08710191188715,
      "semi_major_axis_km": 6861.092149610527,
      "eccentricity": 0.0001649,
      "inclination_deg": 43.0007,
      "raan_deg": 113.5796,
      "arg_perigee_deg": 251.7082,
      "mean_anomaly_deg": 108.3591,
      "mean_motion_rev_day": 15.27611375
    }
  ]
}